IRIDIUM 112             
1 41925U 17003J   25258.59442277  .00000138  00000+0  42164-4 0  9996
2 41925  86.4015 202.9925 0002125  85.9884 274.1555 14.34218903453914
IRIDIUM 111             
1 41926U 17003K   25258.09335995  .00000215  00000+0  69777-4 0  9995
2 41926  86.4017 203.2661 0002383  85.5703 274.5765 14.34218222453821
IRIDIUM 113             
1 42803U 17039A   25258.56170236 -.00000018  00000+0 -13527-4 0  9991
2 42803  86.3911  76.9626 0001850  92.9730 267.1678 14.34217394431820
IRIDIUM 123             
1 42804U 17039B   25258.60318277  .00000005  00000+0 -53805-5 0  9995
2 42804  86.3929 108.4476 0002285  90.4621 269.6837 14.34217646430596
IRIDIUM 120             
1 42805U 17039C   25258.55535877  .00000082  00000+0  22368-4 0  9990
2 42805  86.3902  76.7829 0002378  84.7633 275.3835 14.34217768431812
IRIDIUM 115             
1 42806U 17039D   25258.56845442  .00000130  00000+0  32517-4 0  9995
2 42806  86.4438  76.8687 0002872  92.9184 267.2345 14.43279235434650
IRIDIUM 118             
1 42807U 17039E   25258.56512625  .00000044  00000+0  85897-5 0  9994
2 42807  86.3927 108.4630 0001944  91.4352 268.7067 14.34217788430583
IRIDIUM 117             
1 42808U 17039F   25258.58415979  .00000140  00000+0  43048-4 0  9999
2 42808  86.3926 108.4153 0002299  91.4042 268.7417 14.34219695430615
